NORAD_CAT_ID,OBJECT_NAME,OBJECT_TYPE,EPOCH,MEAN_MOTION,ECCENTRICITY,INCLINATION,RA_OF_ASC_NODE,ARG_OF_PERICENTER,MEAN_ANOMALY,BSTAR,MEAN_MOTION_DOT,MEAN_MOTION_DDOT,TLE_LINE0,TLE_LINE1,TLE_LINE2,SEMIMAJOR_AXIS,PERIOD,APOGEE,PERIGEE,DECAYED
50176.0,STARLINK-3293,PAYLOAD,2022-07-13 03:44:09,15.08866199,0.0003229,53.2182,124.5797,57.074,303.0562,0.00049106,7.541e-05,0.0,0 STARLINK-3293,1 50176U 21125W   22194.15567015  .00007541  00000-0  49106-3 0  9998,2 50176  53.2182 124.5797 0003229  57.0740 303.0562 15.08866199 31899,6917.8,95.436,541.899,537.432,0.0
50176.0,STARLINK-3293,PAYLOAD,2022-07-13 06:54:55,15.08869612,0.0003228,53.2182,123.985,57.301,302.8293,0.00051581,7.937e-05,0.0,0 STARLINK-3293,1 50176U 21125W   22194.28814727  .00007937  00000-0  51581-3 0  9996,2 50176  53.2182 123.9850 0003228  57.3010 302.8293 15.08869612 35046,6917.79,95.436,541.888,537.422,0.0
50176.0,STARLINK-3293,PAYLOAD,2022-07-13 19:37:59,15.08880715,0.0003156,53.2184,121.606,57.916,302.2138,0.00059161,9.15e-05,0.0,0 STARLINK-3293,1 50176U 21125W   22194.81805387  .00009150  00000-0  59161-3 0  9998,2 50176  53.2184 121.6060 0003156  57.9160 302.2138 15.08880715 35126,6917.755999999999,95.435,541.804,537.438,0.0
50176.0,STARLINK-3293,PAYLOAD,2022-07-14 01:59:33,15.0884807,0.0003038,53.2183,120.4177,60.2236,299.9058,-0.00010224,-1.916e-05,0.0,0 STARLINK-3293,1 50176U 21125W   22195.08302495 -.00001916  00000-0 -10224-3 0  9991,2 50176  53.2183 120.4177 0003038  60.2236 299.9058 15.08848070 32039,6917.856,95.437,541.822,537.619,0.0
50176.0,STARLINK-3293,PAYLOAD,2022-07-14 11:31:52,15.08826288,0.0003042,53.2185,118.6326,57.0069,303.1215,-0.00035692,-5.963e-05,0.0,0 STARLINK-3293,1 50176U 21125W   22195.48047334 -.00005963  00000-0 -35692-3 0  9995,2 50176  53.2185 118.6326 0003042  57.0069 303.1215 15.08826288 32095,6917.922,95.438,541.8919999999998,537.683,0.0
50176.0,STARLINK-3293,PAYLOAD,2022-07-15 05:01:07,15.08835488,0.0002963,53.2161,115.3616,58.5524,301.5757,0.00045434,6.949e-05,0.0,0 STARLINK-3293,1 50176U 21125W   22196.20911845  .00006949  00000-0  45434-3 0  9991,2 50176  53.2161 115.3616 0002963  58.5524 301.5757 15.08835488 32206,6917.894,95.438,541.809,537.7090000000002,0.0
50176.0,STARLINK-3293,PAYLOAD,2022-07-15 11:22:40,15.088428400000002,0.0002913,53.2171,114.1729,57.7727,302.3547,0.00065726,0.00010189,0.0,0 STARLINK-3293,1 50176U 21125W   22196.47407857  .00010189  00000-0  65726-3 0  9990,2 50176  53.2171 114.1729 0002913  57.7727 302.3547 15.08842840 35377,6917.871999999999,95.437,541.752,537.722,0.0
50176.0,STARLINK-3293,PAYLOAD,2022-07-16 11:13:26,15.08853679,0.0002876,53.2161,109.7124,57.9868,302.1403,0.00043679,6.673e-05,0.0,0 STARLINK-3293,1 50176U 21125W   22197.46767324  .00006673  00000-0  43679-3 0  9994,2 50176  53.2161 109.7124 0002876  57.9868 302.1403 15.08853679 32391,6917.839,95.437,541.693,537.714,0.0
50176.0,STARLINK-3293,PAYLOAD,2022-07-16 20:45:45,15.08850549,0.0002838,53.2159,107.9286,59.5083,300.619,0.00023579,3.467e-05,0.0,0 STARLINK-3293,1 50176U 21125W   22197.86511205  .00003467  00000-0  23579-3 0  9998,2 50176  53.2159 107.9286 0002838  59.5083 300.6190 15.08850549 35585,6917.848000000001,95.437,541.6759999999998,537.75,0.0
50176.0,STARLINK-3293,PAYLOAD,2022-07-17 03:07:18,15.08843908,0.000282,53.216,106.7386,58.1967,301.9299,6.3109e-05,7.16e-06,0.0,0 STARLINK-3293,1 50176U 21125W   22198.13007287  .00000716  00000-0  63109-4 0  9997,2 50176  53.2160 106.7386 0002820  58.1967 301.9299 15.08843908 32494,6917.868,95.437,541.684,537.783,0.0
50176.0,STARLINK-3293,PAYLOAD,2022-07-17 11:04:13,15.0884866,0.0002865,53.2165,105.2515,59.0394,301.0879,0.00015514,2.182e-05,0.0,0 STARLINK-3293,1 50176U 21125W   22198.46127117  .00002182  00000-0  15514-3 0  9993,2 50176  53.2165 105.2515 0002865  59.0394 301.0879 15.08848660 35678,6917.854,95.437,541.701,537.737,0.0
50176.0,STARLINK-3293,PAYLOAD,2022-07-17 17:25:46,15.08844159,0.0002817,53.216,104.0624,59.9071,300.2201,4.3558e-05,4.05e-06,0.0,0 STARLINK-3293,1 50176U 21125W   22198.72623137  .00000405  00000-0  43558-4 0  9991,2 50176  53.2160 104.0624 0002817  59.9071 300.2201 15.08844159 35713,6917.868,95.437,541.681,537.784,0.0
50176.0,STARLINK-3293,PAYLOAD,2022-07-18 04:33:29,15.08835204,0.0002657,53.2175,101.9813,60.6527,299.473,-4.5232e-05,-1.008e-05,0.0,0 STARLINK-3293,1 50176U 21125W   22199.18992161 -.00001008  00000-0 -45232-4 0  9991,2 50176  53.2175 101.9813 0002657  60.6527 299.4730 15.08835204 32659,6917.895,95.438,541.5980000000002,537.922,0.0
50176.0,STARLINK-3293,PAYLOAD,2022-07-18 10:55:01,15.08833825,0.0002692,53.2176,100.7918,60.252,299.874,6.2762e-06,-1.89e-06,0.0,0 STARLINK-3293,1 50176U 21125W   22199.45488204 -.00000189  00000-0  62762-5 0  9995,2 50176  53.2176 100.7918 0002692  60.2520 299.8740 15.08833825 35825,6917.899,95.438,541.627,537.9019999999998,0.0
50176.0,STARLINK-3293,PAYLOAD,2022-07-18 20:27:20,15.08840054,0.0002688,53.2175,99.0068,59.3986,300.7271,4.4454e-05,4.19e-06,0.0,0 STARLINK-3293,1 50176U 21125W   22199.85231757  .00000419  00000-0  44454-4 0  9990,2 50176  53.2175  99.0068 0002688  59.3986 300.7271 15.08840054 35889,6917.88,95.438,541.605,537.886,0.0
50176.0,STARLINK-3293,PAYLOAD,2022-07-19 04:24:15,15.08847992,0.0002708,53.2166,97.5202,60.0231,300.103,0.00022478,3.292e-05,0.0,0 STARLINK-3293,1 50176U 21125W   22200.18351395  .00003292  00000-0  22478-3 0  9993,2 50176  53.2166  97.5202 0002708  60.0231 300.1030 15.08847992 32801,6917.856,95.437,541.594,537.8480000000002,0.0
50176.0,STARLINK-3293,PAYLOAD,2022-07-19 10:45:48,15.08841694,0.0002783,53.2165,96.3303,60.1061,300.0207,0.00012396,1.685e-05,0.0,0 STARLINK-3293,1 50176U 21125W   22200.44847792  .00001685  00000-0  12396-3 0  9995,2 50176  53.2165  96.3303 0002783  60.1061 300.0207 15.08841694 32846,6917.875,95.437,541.665,537.815,0.0
50176.0,STARLINK-3293,PAYLOAD,2022-07-19 21:53:30,15.0884747,0.0002716,53.2167,94.2503,58.6023,301.5235,0.00027811,4.141e-05,0.0,0 STARLINK-3293,1 50176U 21125W   22200.91215559  .00004141  00000-0  27811-3 0  9995,2 50176  53.2167  94.2503 0002716  58.6023 301.5235 15.08847470 36044,6917.858,95.437,541.601,537.844,0.0
50176.0,STARLINK-3293,PAYLOAD,2022-07-20 02:39:39,15.0885929,0.0002675,53.2162,93.3568,60.5681,299.5577,0.00059443,9.19e-05,0.0,0 STARLINK-3293,1 50176U 21125W   22201.11087295  .00009190  00000-0  59443-3 0  9997,2 50176  53.2162  93.3568 0002675  60.5681 299.5577 15.08859290 36077,6917.821,95.436,541.5369999999998,537.836,0.0
50176.0,STARLINK-3293,PAYLOAD,2022-07-20 20:08:53,15.08854387,0.0002281,53.2163,90.0854,63.8285,296.2941,0.00030561,4.581e-05,0.0,0 STARLINK-3293,1 50176U 21125W   22201.83950838  .00004581  00000-0  30561-3 0  9997,2 50176  53.2163  90.0854 0002281  63.8285 296.2941 15.08854387 33055,6917.8359999999975,95.437,541.279,538.123,0.0
50176.0,STARLINK-3293,PAYLOAD,2022-07-21 02:30:26,15.088409099999998,0.000254,53.2165,88.8968,59.0935,301.0306,-2.0865e-05,-6.21e-06,0.0,0 STARLINK-3293,1 50176U 21125W   22202.10447373 -.00000621  00000-0 -20865-4 0  9993,2 50176  53.2165  88.8968 0002540  59.0935 301.0306 15.08840910 36224,6917.878000000002,95.437,541.5,537.985,0.0
50176.0,STARLINK-3293,PAYLOAD,2022-07-21 18:24:18,15.08822072,0.0002381999999999,53.2168,85.9228,62.1988,297.9245,-0.0002702,-4.584e-05,0.0,0 STARLINK-3293,1 50176U 21125W   22202.76688361 -.00004584  00000-0 -27020-3 0  9990,2 50176  53.2168  85.9228 0002382  62.1988 297.9245 15.08822072 33198,6917.935,95.439,541.448,538.1519999999998,0.0
50176.0,STARLINK-3293,PAYLOAD,2022-07-22 03:56:38,15.08823225,0.0002325,53.2167,84.1386,56.9855,303.1361,0.00032322,4.857e-05,0.0,0 STARLINK-3293,1 50176U 21125W   22203.16433040  .00004857  00000-0  32322-3 0  9999,2 50176  53.2167  84.1386 0002325  56.9855 303.1361 15.08823225 36388,6917.932,95.439,541.405,538.188,0.0
50176.0,STARLINK-3293,PAYLOAD,2022-07-22 08:42:47,15.08826563,0.0002265,53.2167,83.2467,57.4696,302.6515,0.00053867,8.292e-05,0.0,0 STARLINK-3293,1 50176U 21125W   22203.36305312  .00008292  00000-0  53867-3 0  9995,2 50176  53.2167  83.2467 0002265  57.4696 302.6515 15.08826563 33289,6917.920999999999,95.438,541.3530000000002,538.22,0.0
50176.0,STARLINK-3293,PAYLOAD,2022-07-22 19:50:30,15.08834602,0.0002269,53.2165,81.1654,58.6271,301.4943,0.00070262,0.0001091,0.0,0 STARLINK-3293,1 50176U 21125W   22203.82673657  .00010910  00000-0  70262-3 0  9994,2 50176  53.2165  81.1654 0002269  58.6271 301.4943 15.08834602 36488,6917.897,95.438,541.332,538.192,0.0
50176.0,STARLINK-3293,PAYLOAD,2022-07-23 08:33:34,15.08849066,0.0002228,53.2166,78.7864,58.3714,301.7495,0.00066182,0.00010263,0.0,0 STARLINK-3293,1 50176U 21125W   22204.35665395  .00010263  00000-0  66182-3 0  9990,2 50176  53.2166  78.7864 0002228  58.3714 301.7495 15.08849066 36562,6917.853,95.437,541.259,538.1759999999998,0.0
50176.0,STARLINK-3293,PAYLOAD,2022-07-23 21:16:39,15.08843497,0.0002238,53.2167,76.4078,59.8724,300.249,0.00022862,3.352e-05,0.0,0 STARLINK-3293,1 50176U 21125W   22204.88657405  .00003352  00000-0  22862-3 0  9999,2 50176  53.2167  76.4078 0002238  59.8724 300.2490 15.08843497 36643,6917.87,95.437,541.283,538.186,0.0
50176.0,STARLINK-3293,PAYLOAD,2022-07-24 08:24:21,15.0884794,0.0002243,53.2166,74.3263,60.0741,300.0473,0.00024023,3.538e-05,0.0,0 STARLINK-3293,1 50176U 21125W   22205.35025180  .00003538  00000-0  24023-3 0  9998,2 50176  53.2166  74.3263 0002243  60.0741 300.0473 15.08847940 36718,6917.856,95.437,541.273,538.169,0.0
50176.0,STARLINK-3293,PAYLOAD,2022-07-24 19:32:03,15.08852379,0.0002251999999999,53.2167,72.245,61.2528,298.8691,0.00029313,4.382e-05,0.0,0 STARLINK-3293,1 50176U 21125W   22205.81392818  .00004382  00000-0  29313-3 0  9999,2 50176  53.2167  72.2450 0002252  61.2528 298.8691 15.08852379 36785,6917.843000000003,95.437,541.265,538.15,0.0
